GLOBAL-2                
1 43812U 18099BG  26068.69955396  .00003970  00000+0  26145-3 0  9998
2 43812  97.3697 109.3280 0007454 127.1924 232.9986 15.08046936396919
STARLINK-4714           
1 53704U 22107E   26068.71241934 -.00000347  00000+0 -37016-5 0  9991
2 53704  53.2168 244.2748 0001272 102.7810 257.3324 15.08835774194691
